EYESAT-NANO             
1 44877U 19092E   21061.75220808  .00001979  00000-0  10163-3 0  9993
2 44877  97.4575 246.9399 0012904 194.8586 165.2271 15.17608833 66758
