<?xml version="1.0" encoding="UTF-8"?>
<ndm xmlns:xsi="http://www.w3.org/2001/XMLSchema-instance" xsi:noNamespaceSchemaLocation="http://sanaregistry.org/r/ndmxml/ndmxml-1.0-master.xsd"><omm id="CCSDS_OMM_VERS" version="2.0"><header><COMMENT>GENERATED VIA SPACE-TRACK.ORG API</COMMENT><CREATION_DATE>2021-03-03T03:24:48</CREATION_DATE><ORIGINATOR>18 SPCS</ORIGINATOR></header><body><segment><metadata><OBJECT_NAME>EYESAT-NANO</OBJECT_NAME><OBJECT_ID>2019-092E</OBJECT_ID><CENTER_NAME>EARTH</CENTER_NAME><REF_FRAME>TEME</REF_FRAME><TIME_SYSTEM>UTC</TIME_SYSTEM><MEAN_ELEMENT_THEORY>SGP4</MEAN_ELEMENT_THEORY></metadata><data><meanElements><EPOCH>2021-03-02T18:03:10.778112</EPOCH><MEAN_MOTION>15.17608833</MEAN_MOTION><ECCENTRICITY>0.00129040</ECCENTRICITY><INCLINATION>97.4575</INCLINATION><RA_OF_ASC_NODE>246.9399</RA_OF_ASC_NODE><ARG_OF_PERICENTER>194.8586</ARG_OF_PERICENTER><MEAN_ANOMALY>165.2271</MEAN_ANOMALY></meanElements><tleParameters><EPHEMERIS_TYPE>0</EPHEMERIS_TYPE><CLASSIFICATION_TYPE>U</CLASSIFICATION_TYPE><NORAD_CAT_ID>44877</NORAD_CAT_ID><ELEMENT_SET_NO>999</ELEMENT_SET_NO><REV_AT_EPOCH>6675</REV_AT_EPOCH><BSTAR>0.00010163000000</BSTAR><MEAN_MOTION_DOT>0.00001979</MEAN_MOTION_DOT><MEAN_MOTION_DDOT>0.0000000000000</MEAN_MOTION_DDOT></tleParameters><userDefinedParameters><USER_DEFINED parameter="SEMIMAJOR_AXIS">6891.207</USER_DEFINED><USER_DEFINED parameter="PERIOD">94.886</USER_DEFINED><USER_DEFINED parameter="APOAPSIS">521.964</USER_DEFINED><USER_DEFINED parameter="PERIAPSIS">504.179</USER_DEFINED><USER_DEFINED parameter="OBJECT_TYPE">PAYLOAD</USER_DEFINED><USER_DEFINED parameter="RCS_SIZE">SMALL</USER_DEFINED><USER_DEFINED parameter="COUNTRY_CODE">FR</USER_DEFINED><USER_DEFINED parameter="LAUNCH_DATE">2019-12-18</USER_DEFINED><USER_DEFINED parameter="SITE">FRGUI</USER_DEFINED><USER_DEFINED parameter="DECAY_DATE"/><USER_DEFINED parameter="FILE">2974426</USER_DEFINED><USER_DEFINED parameter="GP_ID">172731144</USER_DEFINED></userDefinedParameters></data></segment></body></omm></ndm>